1 58492U 23186V 26161.57737234 -.00001019 00000+0 -27525-4 0 9999 
2 58492 42.9974 258.9408 0000977 137.1351 222.9577 15.27570073140090 
1 58493U 23186W 26161.96197542 -.00003185 00000+0 -10623-3 0 9991 
2 58493 43.0001 256.6660 0001941 282.1101 77.9533 15.27589545140156 
1 58494U 23186X 26161.95813156 .00001547 00000+0 65783-4 0 9993 
2 58494 43.0025 256.6356 0001090 275.5772 84.4956 15.27554185140154 
1 58495U 23186Y 26161.54025801 -.00000768 00000+0 -18373-4 0 9990 
2 58495 43.0105 259.5231 0002260 272.3882 87.6711 15.27570722140255 
1 58496U 23187A 26162.27281699 .00001282 00000+0 15937-3 0 9994 
2 58496 97.9262 245.1604 0012111 158.2017 201.9715 14.84251717136242 
1 58497U 23187B 26162.25668330 .00001035 00000+0 13314-3 0 9997 
2 58497 97.9270 244.2331 0011545 159.3729 200.7953 14.83228736136167 
1 58498U 23187C 26162.29125875 .00001272 00000+0 15246-3 0 9993 
2 58498 97.9297 246.3948 0011263 153.4883 206.6910 14.85795508136309 
1 58500U 23188A 26162.30921031 .00001082 00000+0 16589-3 0 9998 
2 58500 46.9824 323.5869 0008040 4.0097 356.0860 14.80612329136128 
1 58502U 23189A 26162.30798351 .00003676 00000+0 11674-3 0 9999 
2 58502 97.4374 180.5091 0009095 282.0725 77.9498 15.33270358140319 
1 58505U 23190A 26162.27583697 .00000053 00000+0 70072-4 0 9999 
2 58505 86.5028 334.6262 0002242 96.3180 263.8218 13.39551709123905 
1 58508U 23191A 26162.09065964 -.00001231 00000+0 -35188-4 0 9995 
2 58508 42.9998 302.9533 0001380 288.3882 71.6819 15.27593790139671 
1 58509U 23191B 26162.07909513 .00005856 00000+0 22218-3 0 9995 
2 58509 43.0020 302.8694 0001229 269.2635 90.8076 15.27577613139677 
1 58510U 23191C 26162.09679020 .00001063 00000+0 48108-4 0 9999 
2 58510 42.9945 296.1901 0000282 93.9592 266.1292 15.27582134139785 
1 58511U 23191D 26162.10062610 .00000113 00000+0 13679-4 0 9993 
2 58511 43.0087 296.2247 0004243 281.9498 78.0878 15.27579748139758 
1 58512U 23191E 26161.64678692 .00001411 00000+0 60782-4 0 9994 
2 58512 43.0048 298.8277 0001926 272.3118 87.7513 15.27589178139688 
1 58513U 23191F 26161.64936666 .00005347 00000+0 20374-3 0 9997 
2 58513 43.0038 298.8512 0001829 267.5549 92.5094 15.27573247139718 
1 58514U 23191G 26161.81726237 .00000111 00000+0 13594-4 0 9999 
2 58514 43.0124 297.5273 0002572 293.8202 66.2380 15.27571464139365 
1 58515U 23191H 26162.02582719 -.00003801 00000+0 -12863-3 0 9997 
2 58515 42.9928 64.0479 0002177 276.5197 83.5406 15.27582839142456 
1 58516U 23191J 26161.65820771 -.00000290 00000+0 -98742-6 0 9991 
2 58516 43.0094 298.0544 0001913 274.9429 85.1205 15.27573857139699 
1 58517U 23191K 26161.65434946 .00002212 00000+0 89864-4 0 9994 
2 58517 43.0023 298.0313 0001583 277.0159 83.0513 15.27590161139699 
1 58518U 23191L 26162.09293402 .00001154 00000+0 51421-4 0 9996 
2 58518 42.9931 296.1370 0000507 275.8359 84.2435 15.27580836139752 
1 58519U 23191M 26162.08906074 .00000070 00000+0 12103-4 0 9992 
2 58519 43.0250 296.0722 0003011 271.6810 88.3697 15.27579173139755 
1 58520U 23191N 26161.65307094 .00002207 00000+0 89710-4 0 9995 
2 58520 43.0014 298.0189 0001404 265.8942 94.1749 15.27580253139696 
1 58521U 23191P 26161.66670139 .00002816 00000+0 11185-3 0 9996 
2 58521 43.0023 298.0005 0001538 273.3122 140.5703 15.27570227 5874 
1 58523U 23191R 26162.25310554 -.00001182 00000+0 -33406-4 0 9994 
2 58523 43.0204 294.7708 0001957 295.8687 64.1963 15.27584087139731 
1 58524U 23191S 26162.06080434 .00000137 00000+0 14507-4 0 9993 
2 58524 42.9962 295.9186 0001272 274.3218 85.7489 15.27579876139750 
1 58525U 23191T 26162.06337330 .00000912 00000+0 42650-4 0 9995 
2 58525 43.0061 295.9370 0001471 268.4903 91.5780 15.27583981139755 
1 58526U 23191U 26162.11595099 .00018638 00000+0 11511-2 0 9994 
2 58526 43.0002 313.3607 0008519 292.3165 67.6776 15.09551588139550 
1 58527U 23191V 26161.69032290 .00002551 00000+0 10220-3 0 9990 
2 58527 43.0047 298.2004 0000147 353.3603 6.7247 15.27575856139692 
1 58528U 23191W 26162.06723599 -.00003032 00000+0 -10074-3 0 9996 
2 58528 43.0004 295.9629 0001023 280.9633 79.1103 15.27566637139754 
