OBJECT_NAME,OBJECT_ID,EPOCH,MEAN_MOTION,ECCENTRICITY,INCLINATION,RA_OF_ASC_NODE,ARG_OF_PERICENTER,MEAN_ANOMALY,EPHEMERIS_TYPE,CLASSIFICATION_TYPE,NORAD_CAT_ID,ELEMENT_SET_NO,REV_AT_EPOCH,BSTAR,MEAN_MOTION_DOT,MEAN_MOTION_DDOT
STARLINK-30986,2023-186V,2026-06-10T13:51:24.970176,15.27570073,.00009774,42.9974,258.9408,137.1351,222.9577,0,U,58492,999,14009,-.27525456E-4,-.1019E-4,0
STARLINK-30985,2023-186W,2026-06-10T23:05:14.676288,15.27589545,.00019412,43.0001,256.6660,282.1101,77.9533,0,U,58493,999,14015,-.10622696E-3,-.3185E-4,0
STARLINK-30981,2023-186X,2026-06-10T22:59:42.566784,15.27554185,.00010901,43.0025,256.6356,275.5772,84.4956,0,U,58494,999,14015,.65783273E-4,.1547E-4,0
STARLINK-31002,2023-186Y,2026-06-10T12:57:58.292064,15.27570722,.00022604,43.0105,259.5231,272.3882,87.6711,0,U,58495,999,14025,-.18372845E-4,-.768E-5,0
XINGCHI-1 02A,2023-187A,2026-06-11T06:32:51.387936,14.84251717,.00121112,97.9262,245.1604,158.2017,201.9715,0,U,58496,999,13624,.15936808E-3,.1282E-4,0
MISRSAT-2,2023-187B,2026-06-11T06:09:37.437120,14.83228736,.00115452,97.9270,244.2331,159.3729,200.7953,0,U,58497,999,13616,.1331418E-3,.1035E-4,0
XINGCHI-1 02B,2023-187C,2026-06-11T06:59:24.756000,14.85795508,.00112631,97.9297,246.3948,153.4883,206.6910,0,U,58498,999,13630,.15245735E-3,.1272E-4,0
DOORY-SAT,2023-188A,2026-06-11T07:25:15.770784,14.80612329,.00080401,46.9824,323.5869,4.0097,356.0860,0,U,58500,999,13612,.16589188E-3,.1082E-4,0
2023-189A,2023-189A,2026-06-11T07:23:29.775264,15.33270358,.00090954,97.4374,180.5091,282.0725,77.9498,0,U,58502,999,14031,.11674185E-3,.3676E-4,0
CHUANGXIN 19 (CX-19),2023-190A,2026-06-11T06:37:12.314208,13.39551709,.00022423,86.5028,334.6262,96.3180,263.8218,0,U,58505,999,12390,.70072223E-4,.53E-6,0
STARLINK-31026,2023-191A,2026-06-11T02:10:32.992896,15.27593790,.00013808,42.9998,302.9533,288.3882,71.6819,0,U,58508,999,13967,-.35187644E-4,-.1231E-4,0
STARLINK-31020,2023-191B,2026-06-11T01:53:53.819232,15.27577613,.00012297,43.0020,302.8694,269.2635,90.8076,0,U,58509,999,13967,.22217746E-3,.5856E-4,0
STARLINK-30989,2023-191C,2026-06-11T02:19:22.673280,15.27582134,.00002828,42.9945,296.1901,93.9592,266.1292,0,U,58510,999,13978,.48107969E-4,.1063E-4,0
STARLINK-30968,2023-191D,2026-06-11T02:24:54.095040,15.27579748,.00042439,43.0087,296.2247,281.9498,78.0878,0,U,58511,999,13975,.13678838E-4,.113E-5,0
STARLINK-30982,2023-191E,2026-06-10T15:31:22.389888,15.27589178,.00019268,43.0048,298.8277,272.3118,87.7513,0,U,58512,999,13968,.60782223E-4,.1411E-4,0
STARLINK-30998,2023-191F,2026-06-10T15:35:05.279424,15.27573247,.0001829,43.0038,298.8512,267.5549,92.5094,0,U,58513,999,13971,.20374398E-3,.5347E-4,0
STARLINK-30983,2023-191G,2026-06-10T19:36:51.468768,15.27571464,.00025727,43.0124,297.5273,293.8202,66.2380,0,U,58514,999,13936,.13593919E-4,.111E-5,0
STARLINK-31017,2023-191H,2026-06-11T00:37:11.469216,15.27582839,.00021779,42.9928,64.0479,276.5197,83.5406,0,U,58515,999,14245,-.12863161E-3,-.3801E-4,0
STARLINK-31028,2023-191J,2026-06-10T15:47:49.146144,15.27573857,.0001913,43.0094,298.0544,274.9429,85.1205,0,U,58516,999,13969,-.987425E-6,-.29E-5,0
STARLINK-31011,2023-191K,2026-06-10T15:42:15.793344,15.27590161,.00015839,43.0023,298.0313,277.0159,83.0513,0,U,58517,999,13969,.89864161E-4,.2212E-4,0
STARLINK-31021,2023-191L,2026-06-11T02:13:49.499328,15.27580836,.00005079,42.9931,296.1370,275.8359,84.2435,0,U,58518,999,13975,.51420502E-4,.1154E-4,0
STARLINK-31010,2023-191M,2026-06-11T02:08:14.847936,15.27579173,.00030118,43.0250,296.0722,271.6810,88.3697,0,U,58519,999,13975,.12102892E-4,.7E-6,0
STARLINK-31003,2023-191N,2026-06-10T15:40:25.329216,15.27580253,.00014044,43.0014,298.0189,265.8942,94.1749,0,U,58520,999,13969,.89710361E-4,.2207E-4,0
STARLINK-31015,2023-191P,2026-06-10T16:00:03.000096,15.27570227,.00015387,43.0023,298.0005,273.3122,140.5703,0,U,58521,999,587,.11185096E-3,.2816E-4,0
STARLINK-30932,2023-191R,2026-06-11T06:04:28.318656,15.27584087,.00019578,43.0204,294.7708,295.8687,64.1963,0,U,58523,999,13973,-.33405562E-4,-.1182E-4,0
STARLINK-30992,2023-191S,2026-06-11T01:27:33.494976,15.27579876,.00012721,42.9962,295.9186,274.3218,85.7489,0,U,58524,999,13975,.14506656E-4,.137E-5,0
STARLINK-30948,2023-191T,2026-06-11T01:31:15.453120,15.27583981,.00014718,43.0061,295.9370,268.4903,91.5780,0,U,58525,999,13975,.4264968E-4,.912E-5,0
STARLINK-31013,2023-191U,2026-06-11T02:46:58.165536,15.09551588,.00085198,43.0002,313.3607,292.3165,67.6776,0,U,58526,999,13955,.11510574E-2,.18638E-3,0
STARLINK-31001,2023-191V,2026-06-10T16:34:03.898560,15.27575856,.00001472,43.0047,298.2004,353.3603,6.7247,0,U,58527,999,13969,.10220417E-3,.2551E-4,0
STARLINK-31004,2023-191W,2026-06-11T01:36:49.189536,15.27566637,.00010239,43.0004,295.9629,280.9633,79.1103,0,U,58528,999,13975,-.10073706E-3,-.3032E-4,0
